STARLINK-37090          
1 68193U 26050AC  26078.56374858 -.00651387  15641-3 -11396-2 0  9993
2 68193  53.1621 232.5012 0000711 333.6069  26.4927 16.01369308  2033
STARLINK-37093          
1 68194U 26050AD  26078.56490579 -.00668674  16258-3 -12185-2 0  9992
2 68194  53.1623 232.5098 0001079 125.0257 235.0876 16.00670231  2030
STARLINK-37058          
1 68195U 26050AE  26078.31433581 -.00749084  20203-3 -12605-2 0  9993
2 68195  53.1616 233.7917 0002524 340.0442  20.0490 16.02049525   431
YAOGAN-50 02            
1 68196U 26051A   26079.00002888  .00000241  00000+0  28234-4 0  9993
2 68196 141.9942 256.6193 0085589 153.1893 207.3280 14.02354822   631
CZ-6A R/B               
1 68197U 26051B   26081.26324905  .00001427  00000+0  19734-3 0  9993
2 68197 142.0318 270.6738 0185867 140.7574 220.6787 14.56363282   998
2026-052A               
1 68198U 26052A   26081.24872626  .00008863  00000+0  55007-3 0  9995
2 68198  97.5370 157.4026 0012516 242.4416 117.5543 15.09874697   921
YUXING-3 06             
1 68199U 26052B   26081.77822178  .00005209  00000+0  32387-3 0  9998
2 68199  97.5372 157.9244 0011661 241.9593 118.0457 15.10019513  1001
2026-052C               
1 68200U 26052C   26081.24755073  .00005327  00000+0  32994-3 0  9997
2 68200  97.5366 157.4041 0011362 246.4217 113.5820 15.10146722   914
2026-052D               
1 68201U 26052D   26081.24695183  .00008339  00000+0  51183-3 0  9990
2 68201  97.5373 157.4019 0010517 242.3661 117.6501 15.10316032   922
2026-052E               
1 68202U 26052E   26081.24693631  .00008211  00000+0  50402-3 0  9999
2 68202  97.5375 157.4029 0010439 247.3538 112.6588 15.10317863   920
2026-052F               
1 68203U 26052F   26081.24593355  .00008261  00000+0  50365-3 0  9995
2 68203  97.5366 157.4109 0009673 238.5685 121.4599 15.10571536   922
2026-052G               
1 68204U 26052G   26081.24573360  .00007909  00000+0  48182-3 0  9992
2 68204  97.5373 157.4041 0009243 242.0245 118.0049 15.10618627   926
